COSMOS 2251 DEB         
1 34037U 93036HY  17345.92273516  .00000275  00000-0  11900-3 0  9991
2 34037  74.0534 316.9064 0059570   3.0219 357.1277 14.28055885459446
